{
  "type": "FeatureCollection",
  "features": [
    {
      "type": "Feature",
      "properties": {
        "norad_id": 41860,
        "name": "GSAT0212 (GALILEO 16)",
        "group": "galileo",
        "lat": 44.1780096397986,
        "lon": -115.93661093592172,
        "alt_km": 23217.323786956415,
        "timestamp": "2025-12-14T14:39:29.633529+00:00",
        "meta_object_name": "GSAT0212 (GALILEO 16)",
        "meta_object_id": "2016-069B",
        "meta_epoch": "2025-12-11T11:29:42.448992",
        "meta_mean_motion": 1.70474595,
        "meta_eccentricity": 0.00021636,
        "meta_inclination": 55.3791,
        "meta_ra_of_asc_node": 106.2805,
        "meta_arg_of_pericenter": 27.6057,
        "meta_mean_anomaly": 332.3763,
        "meta_ephemeris_type": 0,
        "meta_classification_type": "U",
        "meta_norad_cat_id": 41860,
        "meta_element_set_no": 999,
        "meta_rev_at_epoch": 5645,
        "meta_bstar": 0,
        "meta_mean_motion_dot": 8e-08,
        "meta_mean_motion_ddot": 0,
        "tle_line1": "1 41860U 16069B   25345.47896353  .00000008  00000+0  00000+0 0  9991",
        "tle_line2": "2 41860  55.3791 106.2805 0002163  27.6057 332.3763  1.70474595 56451"
      },
      "geometry": {
        "type": "Point",
        "coordinates": [
          -115.93661093592172,
          44.1780096397986
        ]
      }
    },
    {
      "type": "Feature",
      "properties": {
        "norad_id": 41861,
        "name": "GSAT0213 (GALILEO 17)",
        "group": "galileo",
        "lat": -53.15141877172737,
        "lon": -6.758338727236147,
        "alt_km": 23221.66372770937,
        "timestamp": "2025-12-14T14:39:29.633542+00:00",
        "meta_object_name": "GSAT0213 (GALILEO 17)",
        "meta_object_id": "2016-069C",
        "meta_epoch": "2025-12-11T06:14:19.190112",
        "meta_mean_motion": 1.70474845,
        "meta_eccentricity": 0.00023572,
        "meta_inclination": 55.3813,
        "meta_ra_of_asc_node": 106.2942,
        "meta_arg_of_pericenter": 283.5833,
        "meta_mean_anomaly": 76.361,
        "meta_ephemeris_type": 0,
        "meta_classification_type": "U",
        "meta_norad_cat_id": 41861,
        "meta_element_set_no": 999,
        "meta_rev_at_epoch": 5631,
        "meta_bstar": 0,
        "meta_mean_motion_dot": 9e-08,
        "meta_mean_motion_ddot": 0,
        "tle_line1": "1 41861U 16069C   25345.25994433  .00000009  00000+0  00000+0 0  9997",
        "tle_line2": "2 41861  55.3813 106.2942 0002357 283.5833  76.3610  1.70474845 56318"
      },
      "geometry": {
        "type": "Point",
        "coordinates": [
          -6.758338727236147,
          -53.15141877172737
        ]
      }
    },
    {
      "type": "Feature",
      "properties": {
        "norad_id": 41862,
        "name": "GSAT0214 (GALILEO 18)",
        "group": "galileo",
        "lat": 10.74920601585997,
        "lon": -81.34750963828674,
        "alt_km": 23223.18806081049,
        "timestamp": "2025-12-14T14:39:29.633553+00:00",
        "meta_object_name": "GSAT0214 (GALILEO 18)",
        "meta_object_id": "2016-069D",
        "meta_epoch": "2025-12-12T13:53:54.735936",
        "meta_mean_motion": 1.70474744,
        "meta_eccentricity": 0.00013694,
        "meta_inclination": 55.3802,
        "meta_ra_of_asc_node": 106.2504,
        "meta_arg_of_pericenter": 290.3791,
        "meta_mean_anomaly": 69.576,
        "meta_ephemeris_type": 0,
        "meta_classification_type": "U",
        "meta_norad_cat_id": 41862,
        "meta_element_set_no": 999,
        "meta_rev_at_epoch": 5646,
        "meta_bstar": 0,
        "meta_mean_motion_dot": 4e-08,
        "meta_mean_motion_ddot": 0,
        "tle_line1": "1 41862U 16069D   25346.57910574  .00000004  00000+0  00000+0 0  9993",
        "tle_line2": "2 41862  55.3802 106.2504 0001369 290.3791  69.5760  1.70474744 56466"
      },
      "geometry": {
        "type": "Point",
        "coordinates": [
          -81.34750963828674,
          10.74920601585997
        ]
      }
    },
    {
      "type": "Feature",
      "properties": {
        "norad_id": 43055,
        "name": "GSAT0215 (GALILEO 19)",
        "group": "galileo",
        "lat": -36.21801340569977,
        "lon": 77.26896560396531,
        "alt_km": 23228.75569965803,
        "timestamp": "2025-12-14T14:39:29.633564+00:00",
        "meta_object_name": "GSAT0215 (GALILEO 19)",
        "meta_object_id": "2017-079A",
        "meta_epoch": "2025-12-11T21:30:24.060384",
        "meta_mean_motion": 1.704739,
        "meta_eccentricity": 0.00012658,
        "meta_inclination": 55.1303,
        "meta_ra_of_asc_node": 226.661,
        "meta_arg_of_pericenter": 350.6161,
        "meta_mean_anomaly": 9.46,
        "meta_ephemeris_type": 0,
        "meta_classification_type": "U",
        "meta_norad_cat_id": 43055,
        "meta_element_set_no": 999,
        "meta_rev_at_epoch": 4979,
        "meta_bstar": 0,
        "meta_mean_motion_dot": 1.3e-07,
        "meta_mean_motion_ddot": 0,
        "tle_line1": "1 43055U 17079A   25345.89611181  .00000013  00000+0  00000+0 0  9997",
        "tle_line2": "2 43055  55.1303 226.6610 0001265 350.6161   9.4600  1.70473900 49794"
      },
      "geometry": {
        "type": "Point",
        "coordinates": [
          77.26896560396531,
          -36.21801340569977
        ]
      }
    },
    {
      "type": "Feature",
      "properties": {
        "norad_id": 43056,
        "name": "GSAT0216 (GALILEO 20)",
        "group": "galileo",
        "lat": 37.077292103326705,
        "lon": -101.64417387366285,
        "alt_km": 23216.53200247331,
        "timestamp": "2025-12-14T14:39:29.633575+00:00",
        "meta_object_name": "GSAT0216 (GALILEO 20)",
        "meta_object_id": "2017-079B",
        "meta_epoch": "2025-12-13T08:39:13.176288",
        "meta_mean_motion": 1.70474029,
        "meta_eccentricity": 0.00023036,
        "meta_inclination": 55.1302,
        "meta_ra_of_asc_node": 226.6206,
        "meta_arg_of_pericenter": 326.735,
        "meta_mean_anomaly": 33.3311,
        "meta_ephemeris_type": 0,
        "meta_classification_type": "U",
        "meta_norad_cat_id": 43056,
        "meta_element_set_no": 999,
        "meta_rev_at_epoch": 4983,
        "meta_bstar": 0,
        "meta_mean_motion_dot": 2.3e-07,
        "meta_mean_motion_ddot": 0,
        "tle_line1": "1 43056U 17079B   25347.36056917  .00000023  00000+0  00000+0 0  9993",
        "tle_line2": "2 43056  55.1302 226.6206 0002303 326.7350  33.3311  1.70474029 49836"
      },
      "geometry": {
        "type": "Point",
        "coordinates": [
          -101.64417387366285,
          37.077292103326705
        ]
      }
    },
    {
      "type": "Feature",
      "properties": {
        "norad_id": 43057,
        "name": "GSAT0217 (GALILEO 21)",
        "group": "galileo",
        "lat": -55.09651458141129,
        "lon": 139.7371305355902,
        "alt_km": 23225.84969406321,
        "timestamp": "2025-12-14T14:39:29.633586+00:00",
        "meta_object_name": "GSAT0217 (GALILEO 21)",
        "meta_object_id": "2017-079C",
        "meta_epoch": "2025-12-13T13:57:02.142720",
        "meta_mean_motion": 1.70474015,
        "meta_eccentricity": 0.00027963,
        "meta_inclination": 55.1281,
        "meta_ra_of_asc_node": 226.6125,
        "meta_arg_of_pericenter": 346.0332,
        "meta_mean_anomaly": 14.0404,
        "meta_ephemeris_type": 0,
        "meta_classification_type": "U",
        "meta_norad_cat_id": 43057,
        "meta_element_set_no": 999,
        "meta_rev_at_epoch": 4982,
        "meta_bstar": 0,
        "meta_mean_motion_dot": 2.5e-07,
        "meta_mean_motion_ddot": 0,
        "tle_line1": "1 43057U 17079C   25347.58127480  .00000025  00000+0  00000+0 0  9994",
        "tle_line2": "2 43057  55.1281 226.6125 0002796 346.0332  14.0404  1.70474015 49827"
      },
      "geometry": {
        "type": "Point",
        "coordinates": [
          139.7371305355902,
          -55.09651458141129
        ]
      }
    },
    {
      "type": "Feature",
      "properties": {
        "norad_id": 43058,
        "name": "GSAT0218 (GALILEO 22)",
        "group": "galileo",
        "lat": 34.18729884752925,
        "lon": 18.346221101862195,
        "alt_km": 23226.26467832219,
        "timestamp": "2025-12-14T14:39:29.633597+00:00",
        "meta_object_name": "GSAT0218 (GALILEO 22)",
        "meta_object_id": "2017-079D",
        "meta_epoch": "2025-12-12T15:04:31.769472",
        "meta_mean_motion": 1.70474063,
        "meta_eccentricity": 0.00028411,
        "meta_inclination": 55.1287,
        "meta_ra_of_asc_node": 226.6365,
        "meta_arg_of_pericenter": 306.3289,
        "meta_mean_anomaly": 53.7237,
        "meta_ephemeris_type": 0,
        "meta_classification_type": "U",
        "meta_norad_cat_id": 43058,
        "meta_element_set_no": 999,
        "meta_rev_at_epoch": 4983,
        "meta_bstar": 0,
        "meta_mean_motion_dot": 1.7e-07,
        "meta_mean_motion_ddot": 0,
        "tle_line1": "1 43058U 17079D   25346.62814548  .00000017  00000+0  00000+0 0  9998",
        "tle_line2": "2 43058  55.1287 226.6365 0002841 306.3289  53.7237  1.70474063 49839"
      },
      "geometry": {
        "type": "Point",
        "coordinates": [
          18.346221101862195,
          34.18729884752925
        ]
      }
    }
  ]
}